[{"OBJECT_NAME":"STARLINK-30605","OBJECT_ID":"2023-161E","EPOCH":"2023-11-17T06:00:00.999648","MEAN_MOTION":15.31958181,"ECCENTRICITY":0.0001423,"INCLINATION":53.0556,"RA_OF_ASC_NODE":112.0505,"ARG_OF_PERICENTER":91.6902,"MEAN_ANOMALY":37.4025,"EPHEMERIS_TYPE":0,"CLASSIFICATION_TYPE":"U","NORAD_CAT_ID":58101,"ELEMENT_SET_NO":999,"REV_AT_EPOCH":533,"BSTAR":-0.074532,"MEAN_MOTION_DOT":-0.02099687,"MEAN_MOTION_DDOT":0},{"OBJECT_NAME":"STARLINK-30592","OBJECT_ID":"2023-161F","EPOCH":"2023-11-16T22:00:01.999584","MEAN_MOTION":15.33557345,"ECCENTRICITY":0.0001287,"INCLINATION":53.0554,"RA_OF_ASC_NODE":113.6081,"ARG_OF_PERICENTER":64.2092,"MEAN_ANOMALY":25.8455,"EPHEMERIS_TYPE":0,"CLASSIFICATION_TYPE":"U","NORAD_CAT_ID":58102,"ELEMENT_SET_NO":999,"REV_AT_EPOCH":534,"BSTAR":-0.070741,"MEAN_MOTION_DOT":-0.02096806,"MEAN_MOTION_DDOT":0},{"OBJECT_NAME":"STARLINK-30589","OBJECT_ID":"2023-161G","EPOCH":"2023-11-17T06:00:00.999648","MEAN_MOTION":15.33295017,"ECCENTRICITY":0.0001132,"INCLINATION":53.0556,"RA_OF_ASC_NODE":112.0249,"ARG_OF_PERICENTER":111.917,"MEAN_ANOMALY":30.1984,"EPHEMERIS_TYPE":0,"CLASSIFICATION_TYPE":"U","NORAD_CAT_ID":58103,"ELEMENT_SET_NO":999,"REV_AT_EPOCH":534,"BSTAR":-0.071483,"MEAN_MOTION_DOT":-0.02100669,"MEAN_MOTION_DDOT":0},{"OBJECT_NAME":"STARLINK-30617","OBJECT_ID":"2023-161H","EPOCH":"2023-11-17T06:00:00.999648","MEAN_MOTION":15.33370663,"ECCENTRICITY":0.0001249,"INCLINATION":53.0555,"RA_OF_ASC_NODE":112.0221,"ARG_OF_PERICENTER":82.3425,"MEAN_ANOMALY":60.9925,"EPHEMERIS_TYPE":0,"CLASSIFICATION_TYPE":"U","NORAD_CAT_ID":58104,"ELEMENT_SET_NO":999,"REV_AT_EPOCH":533,"BSTAR":-0.07123,"MEAN_MOTION_DOT":-0.0209857,"MEAN_MOTION_DDOT":0},{"OBJECT_NAME":"STARLINK-30616","OBJECT_ID":"2023-161J","EPOCH":"2023-11-17T06:00:00.999648","MEAN_MOTION":15.34628468,"ECCENTRICITY":9.67e-5,"INCLINATION":53.0554,"RA_OF_ASC_NODE":112.0016,"ARG_OF_PERICENTER":93.2235,"MEAN_ANOMALY":60.5054,"EPHEMERIS_TYPE":0,"CLASSIFICATION_TYPE":"U","NORAD_CAT_ID":58105,"ELEMENT_SET_NO":999,"REV_AT_EPOCH":533,"BSTAR":-0.068409,"MEAN_MOTION_DOT":-0.02098051,"MEAN_MOTION_DDOT":0},{"OBJECT_NAME":"STARLINK-30612","OBJECT_ID":"2023-161K","EPOCH":"2023-11-17T06:00:00.999648","MEAN_MOTION":15.3470838,"ECCENTRICITY":0.0001222,"INCLINATION":53.0556,"RA_OF_ASC_NODE":111.9992,"ARG_OF_PERICENTER":92.2113,"MEAN_ANOMALY":62.6517,"EPHEMERIS_TYPE":0,"CLASSIFICATION_TYPE":"U","NORAD_CAT_ID":58106,"ELEMENT_SET_NO":999,"REV_AT_EPOCH":518,"BSTAR":-0.068338,"MEAN_MOTION_DOT":-0.02101062,"MEAN_MOTION_DDOT":0},{"OBJECT_NAME":"STARLINK-30421","OBJECT_ID":"2023-161L","EPOCH":"2023-11-17T06:00:00.999648","MEAN_MOTION":15.35967679,"ECCENTRICITY":0.0001194,"INCLINATION":53.0555,"RA_OF_ASC_NODE":111.9811,"ARG_OF_PERICENTER":98.4587,"MEAN_ANOMALY":65.4659,"EPHEMERIS_TYPE":0,"CLASSIFICATION_TYPE":"U","NORAD_CAT_ID":58107,"ELEMENT_SET_NO":999,"REV_AT_EPOCH":534,"BSTAR":-0.065664,"MEAN_MOTION_DOT":-0.02102351,"MEAN_MOTION_DDOT":0},{"OBJECT_NAME":"STARLINK-30611","OBJECT_ID":"2023-161M","EPOCH":"2023-11-17T04:00:00.999936","MEAN_MOTION":15.36446438,"ECCENTRICITY":0.0001193,"INCLINATION":53.0556,"RA_OF_ASC_NODE":112.371,"ARG_OF_PERICENTER":70.1436,"MEAN_ANOMALY":353.6954,"EPHEMERIS_TYPE":0,"CLASSIFICATION_TYPE":"U","NORAD_CAT_ID":58108,"ELEMENT_SET_NO":999,"REV_AT_EPOCH":533,"BSTAR":-0.06599,"MEAN_MOTION_DOT":-0.02141519,"MEAN_MOTION_DDOT":0},{"OBJECT_NAME":"STARLINK-30606","OBJECT_ID":"2023-161N","EPOCH":"2023-11-17T04:00:00.999936","MEAN_MOTION":15.37705917,"ECCENTRICITY":0.0001184,"INCLINATION":53.0555,"RA_OF_ASC_NODE":112.3564,"ARG_OF_PERICENTER":74.4095,"MEAN_ANOMALY":356.7821,"EPHEMERIS_TYPE":0,"CLASSIFICATION_TYPE":"U","NORAD_CAT_ID":58109,"ELEMENT_SET_NO":999,"REV_AT_EPOCH":532,"BSTAR":-0.063391,"MEAN_MOTION_DOT":-0.02143245,"MEAN_MOTION_DDOT":0},{"OBJECT_NAME":"STARLINK-30596","OBJECT_ID":"2023-161P","EPOCH":"2023-11-17T06:00:00.999648","MEAN_MOTION":15.37379706,"ECCENTRICITY":0.0001246,"INCLINATION":53.0554,"RA_OF_ASC_NODE":111.9616,"ARG_OF_PERICENTER":86.6919,"MEAN_ANOMALY":86.991,"EPHEMERIS_TYPE":0,"CLASSIFICATION_TYPE":"U","NORAD_CAT_ID":58110,"ELEMENT_SET_NO":999,"REV_AT_EPOCH":534,"BSTAR":-0.062668,"MEAN_MOTION_DOT":-0.02100905,"MEAN_MOTION_DDOT":0},{"OBJECT_NAME":"STARLINK-30595","OBJECT_ID":"2023-161Q","EPOCH":"2023-11-17T06:00:00.999648","MEAN_MOTION":15.38639887,"ECCENTRICITY":0.000133,"INCLINATION":53.0554,"RA_OF_ASC_NODE":111.949,"ARG_OF_PERICENTER":98.2601,"MEAN_ANOMALY":81.8223,"EPHEMERIS_TYPE":0,"CLASSIFICATION_TYPE":"U","NORAD_CAT_ID":58111,"ELEMENT_SET_NO":999,"REV_AT_EPOCH":533,"BSTAR":-0.060209,"MEAN_MOTION_DOT":-0.02067826,"MEAN_MOTION_DDOT":0},{"OBJECT_NAME":"STARLINK-30593","OBJECT_ID":"2023-161R","EPOCH":"2023-11-17T06:00:00.999648","MEAN_MOTION":15.38720276,"ECCENTRICITY":0.0001035,"INCLINATION":53.0553,"RA_OF_ASC_NODE":111.9475,"ARG_OF_PERICENTER":86.6351,"MEAN_ANOMALY":94.336,"EPHEMERIS_TYPE":0,"CLASSIFICATION_TYPE":"U","NORAD_CAT_ID":58112,"ELEMENT_SET_NO":999,"REV_AT_EPOCH":544,"BSTAR":-0.060188,"MEAN_MOTION_DOT":-0.02071891,"MEAN_MOTION_DDOT":0},{"OBJECT_NAME":"STARLINK-30353","OBJECT_ID":"2023-161S","EPOCH":"2023-11-17T06:00:00.999648","MEAN_MOTION":15.39975053,"ECCENTRICITY":0.0001377,"INCLINATION":53.0548,"RA_OF_ASC_NODE":111.9371,"ARG_OF_PERICENTER":86.9102,"MEAN_ANOMALY":99.1322,"EPHEMERIS_TYPE":0,"CLASSIFICATION_TYPE":"U","NORAD_CAT_ID":58113,"ELEMENT_SET_NO":999,"REV_AT_EPOCH":534,"BSTAR":-0.057596,"MEAN_MOTION_DOT":-0.02067648,"MEAN_MOTION_DDOT":0},{"OBJECT_NAME":"STARLINK-30572","OBJECT_ID":"2023-161T","EPOCH":"2023-11-17T06:00:00.999648","MEAN_MOTION":15.40054964,"ECCENTRICITY":0.0001283,"INCLINATION":53.0546,"RA_OF_ASC_NODE":111.9353,"ARG_OF_PERICENTER":99.5229,"MEAN_ANOMALY":87.3268,"EPHEMERIS_TYPE":0,"CLASSIFICATION_TYPE":"U","NORAD_CAT_ID":58114,"ELEMENT_SET_NO":999,"REV_AT_EPOCH":534,"BSTAR":-0.057531,"MEAN_MOTION_DOT":-0.02070406,"MEAN_MOTION_DDOT":0},{"OBJECT_NAME":"STARLINK-30580","OBJECT_ID":"2023-161U","EPOCH":"2023-11-17T06:00:00.999648","MEAN_MOTION":15.41150298,"ECCENTRICITY":7.11e-5,"INCLINATION":53.0547,"RA_OF_ASC_NODE":111.9281,"ARG_OF_PERICENTER":37.3778,"MEAN_ANOMALY":153.4032,"EPHEMERIS_TYPE":0,"CLASSIFICATION_TYPE":"U","NORAD_CAT_ID":58115,"ELEMENT_SET_NO":999,"REV_AT_EPOCH":534,"BSTAR":-0.053093,"MEAN_MOTION_DOT":-0.01991283,"MEAN_MOTION_DDOT":0},{"OBJECT_NAME":"STARLINK-30493","OBJECT_ID":"2023-161V","EPOCH":"2023-11-17T06:00:00.999648","MEAN_MOTION":15.41390838,"ECCENTRICITY":0.0001289,"INCLINATION":53.0547,"RA_OF_ASC_NODE":111.9264,"ARG_OF_PERICENTER":77.838,"MEAN_ANOMALY":113.4767,"EPHEMERIS_TYPE":0,"CLASSIFICATION_TYPE":"U","NORAD_CAT_ID":58116,"ELEMENT_SET_NO":999,"REV_AT_EPOCH":534,"BSTAR":-0.055042,"MEAN_MOTION_DOT":-0.02071286,"MEAN_MOTION_DDOT":0},{"OBJECT_NAME":"STARLINK-30601","OBJECT_ID":"2023-161W","EPOCH":"2023-11-17T03:36:47.034432","MEAN_MOTION":15.4349803,"ECCENTRICITY":0.0002439,"INCLINATION":53.0545,"RA_OF_ASC_NODE":112.3958,"ARG_OF_PERICENTER":76.5417,"MEAN_ANOMALY":283.586,"EPHEMERIS_TYPE":0,"CLASSIFICATION_TYPE":"U","NORAD_CAT_ID":58117,"ELEMENT_SET_NO":999,"REV_AT_EPOCH":532,"BSTAR":-0.001816,"MEAN_MOTION_DOT":-0.00082219,"MEAN_MOTION_DDOT":0}]
