STARLINK-30605          
1 58101U 23161E   23321.25001157 -.02099687  00000+0 -74532-1 0  9994
2 58101  53.0556 112.0505 0001423  91.6902  37.4025 15.31958181  5336
STARLINK-30592          
1 58102U 23161F   23320.91668981 -.02096806  00000+0 -70741-1 0  9999
2 58102  53.0554 113.6081 0001287  64.2092  25.8455 15.33557345  5343
STARLINK-30589          
1 58103U 23161G   23321.25001157 -.02100669  00000+0 -71483-1 0  9991
2 58103  53.0556 112.0249 0001132 111.9170  30.1984 15.33295017  5342
STARLINK-30617          
1 58104U 23161H   23321.25001157 -.02098570  00000+0 -71230-1 0  9999
2 58104  53.0555 112.0221 0001249  82.3425  60.9925 15.33370663  5331
STARLINK-30616          
1 58105U 23161J   23321.25001157 -.02098051  00000+0 -68409-1 0  9998
2 58105  53.0554 112.0016 0000967  93.2235  60.5054 15.34628468  5338
STARLINK-30612          
1 58106U 23161K   23321.25001157 -.02101062  00000+0 -68338-1 0  9997
2 58106  53.0556 111.9992 0001222  92.2113  62.6517 15.34708380  5183
STARLINK-30421          
1 58107U 23161L   23321.25001157 -.02102351  00000+0 -65664-1 0  9999
2 58107  53.0555 111.9811 0001194  98.4587  65.4659 15.35967679  5349
STARLINK-30611          
1 58108U 23161M   23321.16667824 -.02141519  00000+0 -65990-1 0  9990
2 58108  53.0556 112.3710 0001193  70.1436 353.6954 15.36446438  5338
STARLINK-30606          
1 58109U 23161N   23321.16667824 -.02143245  00000+0 -63391-1 0  9992
2 58109  53.0555 112.3564 0001184  74.4095 356.7821 15.37705917  5320
STARLINK-30596          
1 58110U 23161P   23321.25001157 -.02100905  00000+0 -62668-1 0  9997
2 58110  53.0554 111.9616 0001246  86.6919  86.9910 15.37379706  5349
STARLINK-30595          
1 58111U 23161Q   23321.25001157 -.02067826  00000+0 -60209-1 0  9991
2 58111  53.0554 111.9490 0001330  98.2601  81.8223 15.38639887  5331
STARLINK-30593          
1 58112U 23161R   23321.25001157 -.02071891  00000+0 -60188-1 0  9995
2 58112  53.0553 111.9475 0001035  86.6351  94.3360 15.38720276  5445
STARLINK-30353          
1 58113U 23161S   23321.25001157 -.02067648  00000+0 -57596-1 0  9990
2 58113  53.0548 111.9371 0001377  86.9102  99.1322 15.39975053  5347
STARLINK-30572          
1 58114U 23161T   23321.25001157 -.02070406  00000+0 -57531-1 0  9996
2 58114  53.0546 111.9353 0001283  99.5229  87.3268 15.40054964  5341
STARLINK-30580          
1 58115U 23161U   23321.25001157 -.01991283  00000+0 -53093-1 0  9990
2 58115  53.0547 111.9281 0000711  37.3778 153.4032 15.41150298  5349
STARLINK-30493          
1 58116U 23161V   23321.25001157 -.02071286  00000+0 -55042-1 0  9990
2 58116  53.0547 111.9264 0001289  77.8380 113.4767 15.41390838  5347
STARLINK-30601          
1 58117U 23161W   23321.15054438 -.00082219  00000+0 -18160-2 0  9997
2 58117  53.0545 112.3958 0002439  76.5417 283.5860 15.43498030  5322
